{"type": "FeatureCollection", "features": [ {"type": "Feature", "properties": {"norad_id": 31566, "name": "FENGYUN 1C DEB", "group": "fengyun-1c-debris", "lat": -78.15335399305253, "lon": 98.5191306197016, "alt_km": 767.4081276815696, "timestamp": "2025-12-16T17:51:11.215010+00:00", "meta": {"OBJECT_NAME": "FENGYUN 1C DEB", "OBJECT_ID": "1999-025BZH", "EPOCH": "2025-12-14T10:02:47.203296", "MEAN_MOTION": 14.3742112, "ECCENTRICITY": 0.00229291, "INCLINATION": 98.9495, "RA_OF_ASC_NODE": 47.4017, "ARG_OF_PERICENTER": 350.1251, "MEAN_ANOMALY": 141.9807, "EPHEMERIS_TYPE": 0, "CLASSIFICATION_TYPE": "U", "NORAD_CAT_ID": 31566, "ELEMENT_SET_NO": 999, "REV_AT_EPOCH": 96415, "BSTAR": 0.0021792216, "MEAN_MOTION_DOT": 6.493e-05, "MEAN_MOTION_DDOT": 0}, "tle": {"line1": "1 31566U 99025BZH 25348.41860189  .00006493  00000+0  21792-2 0  9999", "line2": "2 31566  98.9495  47.4017 0022929 350.1251 141.9807 14.37421120964151"}}, "geometry": {"type": "Point", "coordinates": [98.5191306197016, -78.15335399305253]}}, {"type": "Feature", "properties": {"norad_id": 31567, "name": "FENGYUN 1C DEB", "group": "fengyun-1c-debris", "lat": -70.21290093338077, "lon": -103.85129105309443, "alt_km": 792.5541257416653, "timestamp": "2025-12-16T17:51:11.215021+00:00", "meta": {"OBJECT_NAME": "FENGYUN 1C DEB", "OBJECT_ID": "1999-025BZJ", "EPOCH": "2025-12-13T10:54:10.153152", "MEAN_MOTION": 13.92889885, "ECCENTRICITY": 0.01871013, "INCLINATION": 102.3178, "RA_OF_ASC_NODE": 214.3886, "ARG_OF_PERICENTER": 306.9159, "MEAN_ANOMALY": 51.4974, "EPHEMERIS_TYPE": 0, "CLASSIFICATION_TYPE": "U", "NORAD_CAT_ID": 31567, "ELEMENT_SET_NO": 999, "REV_AT_EPOCH": 67419, "BSTAR": 0.0045185427, "MEAN_MOTION_DOT": 6.703e-05, "MEAN_MOTION_DDOT": 0}, "tle": {"line1": "1 31567U 99025BZJ 25347.45428418  .00006703  00000+0  45185-2 0  9994", "line2": "2 31567 102.3178 214.3886 0187101 306.9159  51.4974 13.92889885674197"}}, "geometry": {"type": "Point", "coordinates": [-103.85129105309443, -70.21290093338077]}}, {"type": "Feature", "properties": {"norad_id": 31568, "name": "FENGYUN 1C DEB", "group": "fengyun-1c-debris", "lat": -69.33829319858884, "lon": 19.646231121626364, "alt_km": 960.115068748617, "timestamp": "2025-12-16T17:51:11.215031+00:00", "meta": {"OBJECT_NAME": "FENGYUN 1C DEB", "OBJECT_ID": "1999-025BZK", "EPOCH": "2025-12-15T09:51:46.951776", "MEAN_MOTION": 14.03367392, "ECCENTRICITY": 0.01226945, "INCLINATION": 102.0485, "RA_OF_ASC_NODE": 232.3829, "ARG_OF_PERICENTER": 113.2298, "MEAN_ANOMALY": 248.1832, "EPHEMERIS_TYPE": 0, "CLASSIFICATION_TYPE": "U", "NORAD_CAT_ID": 31568, "ELEMENT_SET_NO": 999, "REV_AT_EPOCH": 94617, "BSTAR": 0.0021166804, "MEAN_MOTION_DOT": 3.47e-05, "MEAN_MOTION_DDOT": 0}, "tle": {"line1": "1 31568U 99025BZK 25349.41096009  .00003470  00000+0  21167-2 0  9992", "line2": "2 31568 102.0485 232.3829 0122694 113.2298 248.1832 14.03367392946177"}}, "geometry": {"type": "Point", "coordinates": [19.646231121626364, -69.33829319858884]}}, {"type": "Feature", "properties": {"norad_id": 31569, "name": "FENGYUN 1C DEB", "group": "fengyun-1c-debris", "lat": -37.888881854615995, "lon": 159.46066684769067, "alt_km": 811.3833698071867, "timestamp": "2025-12-16T17:51:11.215041+00:00", "meta": {"OBJECT_NAME": "FENGYUN 1C DEB", "OBJECT_ID": "1999-025BZL", "EPOCH": "2025-12-15T09:29:03.986592", "MEAN_MOTION": 13.955484, "ECCENTRICITY": 0.01738741, "INCLINATION": 102.6154, "RA_OF_ASC_NODE": 147.585, "ARG_OF_PERICENTER": 359.6996, "MEAN_ANOMALY": 29.9218, "EPHEMERIS_TYPE": 0, "CLASSIFICATION_TYPE": "U", "NORAD_CAT_ID": 31569, "ELEMENT_SET_NO": 999, "REV_AT_EPOCH": 93716, "BSTAR": 0.0018552215, "MEAN_MOTION_DOT": 2.79e-05, "MEAN_MOTION_DDOT": 0}, "tle": {"line1": "1 31569U 99025BZL 25349.39518503  .00002790  00000+0  18552-2 0  9996", "line2": "2 31569 102.6154 147.5850 0173874 359.6996  29.9218 13.95548400937168"}}, "geometry": {"type": "Point", "coordinates": [159.46066684769067, -37.888881854615995]}}, {"type": "Feature", "properties": {"norad_id": 31570, "name": "FENGYUN 1C DEB", "group": "fengyun-1c-debris", "lat": -77.13690207704023, "lon": 109.0463586754887, "alt_km": 755.7148707489623, "timestamp": "2025-12-16T17:51:11.215051+00:00", "meta": {"OBJECT_NAME": "FENGYUN 1C DEB", "OBJECT_ID": "1999-025BZM", "EPOCH": "2025-12-15T20:21:47.018304", "MEAN_MOTION": 14.25278416, "ECCENTRICITY": 0.01547184, "INCLINATION": 102.5675, "RA_OF_ASC_NODE": 30.1124, "ARG_OF_PERICENTER": 216.2531, "MEAN_ANOMALY": 142.807, "EPHEMERIS_TYPE": 0, "CLASSIFICATION_TYPE": "U", "NORAD_CAT_ID": 31570, "ELEMENT_SET_NO": 999, "REV_AT_EPOCH": 63411, "BSTAR": 0.0020808441, "MEAN_MOTION_DOT": 5.475e-05, "MEAN_MOTION_DDOT": 0}, "tle": {"line1": "1 31570U 99025BZM 25349.84846086  .00005475  00000+0  20808-2 0  9998", "line2": "2 31570 102.5675  30.1124 0154718 216.2531 142.8070 14.25278416634118"}}, "geometry": {"type": "Point", "coordinates": [109.0463586754887, -77.13690207704023]}}, {"type": "Feature", "properties": {"norad_id": 31608, "name": "FENGYUN 1C DEB", "group": "fengyun-1c-debris", "lat": 20.575427452432685, "lon": -67.73100504886095, "alt_km": 681.1756383101292, "timestamp": "2025-12-16T17:51:11.215061+00:00", "meta": {"OBJECT_NAME": "FENGYUN 1C DEB", "OBJECT_ID": "1999-025BZN", "EPOCH": "2025-12-13T01:52:34.871232", "MEAN_MOTION": 14.85857618, "ECCENTRICITY": 0.01461529, "INCLINATION": 98.3792, "RA_OF_ASC_NODE": 105.2371, "ARG_OF_PERICENTER": 36.6452, "MEAN_ANOMALY": 324.465, "EPHEMERIS_TYPE": 0, "CLASSIFICATION_TYPE": "U", "NORAD_CAT_ID": 31608, "ELEMENT_SET_NO": 999, "REV_AT_EPOCH": 98638, "BSTAR": 0.0009356671, "MEAN_MOTION_DOT": 9.832e-05, "MEAN_MOTION_DDOT": 0}, "tle": {"line1": "1 31608U 99025BZN 25347.07818138  .00009832  00000+0  93567-3 0  9994", "line2": "2 31608  98.3792 105.2371 0146152  36.6452 324.4650 14.85857618986383"}}, "geometry": {"type": "Point", "coordinates": [-67.73100504886095, 20.575427452432685]}}, {"type": "Feature", "properties": {"norad_id": 31609, "name": "FENGYUN 1C DEB", "group": "fengyun-1c-debris", "lat": 60.93787676425892, "lon": 2.417250368950975, "alt_km": 860.1510902424807, "timestamp": "2025-12-16T17:51:11.215072+00:00", "meta": {"OBJECT_NAME": "FENGYUN 1C DEB", "OBJECT_ID": "1999-025BZP", "EPOCH": "2025-12-15T00:59:33.000288", "MEAN_MOTION": 14.15782518, "ECCENTRICITY": 0.00948096, "INCLINATION": 99.2167, "RA_OF_ASC_NODE": 17.645, "ARG_OF_PERICENTER": 313.866, "MEAN_ANOMALY": 74.7981, "EPHEMERIS_TYPE": 0, "CLASSIFICATION_TYPE": "U", "NORAD_CAT_ID": 31609, "ELEMENT_SET_NO": 999, "REV_AT_EPOCH": 66117, "BSTAR": 0.0017564085, "MEAN_MOTION_DOT": 3.557e-05, "MEAN_MOTION_DDOT": 0}, "tle": {"line1": "1 31609U 99025BZP 25349.04135417  .00003557  00000+0  17564-2 0  9996", "line2": "2 31609  99.2167  17.6450 0094809 313.8660  74.7981 14.15782518661174"}}, "geometry": {"type": "Point", "coordinates": [2.417250368950975, 60.93787676425892]}}, {"type": "Feature", "properties": {"norad_id": 31612, "name": "FENGYUN 1C DEB", "group": "fengyun-1c-debris", "lat": -79.63360936471761, "lon": -5.802330515389321, "alt_km": 380.7657366484118, "timestamp": "2025-12-16T17:51:11.215082+00:00", "meta": {"OBJECT_NAME": "FENGYUN 1C DEB", "OBJECT_ID": "1999-025BZS", "EPOCH": "2025-12-15T05:34:20.315712", "MEAN_MOTION": 15.71781669, "ECCENTRICITY": 0.00321406, "INCLINATION": 100.3339, "RA_OF_ASC_NODE": 265.9962, "ARG_OF_PERICENTER": 93.9662, "MEAN_ANOMALY": 266.5266, "EPHEMERIS_TYPE": 0, "CLASSIFICATION_TYPE": "U", "NORAD_CAT_ID": 31612, "ELEMENT_SET_NO": 999, "REV_AT_EPOCH": 44, "BSTAR": 0.0014945855, "MEAN_MOTION_DOT": 0.00203446, "MEAN_MOTION_DDOT": 0}, "tle": {"line1": "1 31612U 99025BZS 25349.23217958  .00203446  00000+0  14946-2 0  9992", "line2": "2 31612 100.3339 265.9962 0032140  93.9662 266.5266 15.71781669   440"}}, "geometry": {"type": "Point", "coordinates": [-5.802330515389321, -79.63360936471761]}}, {"type": "Feature", "properties": {"norad_id": 31613, "name": "FENGYUN 1C DEB", "group": "fengyun-1c-debris", "lat": 15.022854071367313, "lon": 174.982785168099, "alt_km": 972.0172731002231, "timestamp": "2025-12-16T17:51:11.215092+00:00", "meta": {"OBJECT_NAME": "FENGYUN 1C DEB", "OBJECT_ID": "1999-025BZT", "EPOCH": "2025-12-15T11:50:19.858560", "MEAN_MOTION": 13.63450039, "ECCENTRICITY": 0.03426904, "INCLINATION": 98.4245, "RA_OF_ASC_NODE": 176.1766, "ARG_OF_PERICENTER": 98.7412, "MEAN_ANOMALY": 265.2701, "EPHEMERIS_TYPE": 0, "CLASSIFICATION_TYPE": "U", "NORAD_CAT_ID": 31613, "ELEMENT_SET_NO": 999, "REV_AT_EPOCH": 91799, "BSTAR": 0.0011120774, "MEAN_MOTION_DOT": 1.272e-05, "MEAN_MOTION_DDOT": 0}, "tle": {"line1": "1 31613U 99025BZT 25349.49328540  .00001272  00000+0  11121-2 0  9996", "line2": "2 31613  98.4245 176.1766 0342690  98.7412 265.2701 13.63450039917999"}}, "geometry": {"type": "Point", "coordinates": [174.982785168099, 15.022854071367313]}}, {"type": "Feature", "properties": {"norad_id": 31614, "name": "FENGYUN 1C DEB", "group": "fengyun-1c-debris", "lat": -17.368484397139323, "lon": 74.28969891235755, "alt_km": 590.8438459782665, "timestamp": "2025-12-16T17:51:11.215103+00:00", "meta": {"OBJECT_NAME": "FENGYUN 1C DEB", "OBJECT_ID": "1999-025BZU", "EPOCH": "2025-12-14T17:07:28.618752", "MEAN_MOTION": 14.97833083, "ECCENTRICITY": 0.00206382, "INCLINATION": 98.9758, "RA_OF_ASC_NODE": 254.7917, "ARG_OF_PERICENTER": 0.6597, "MEAN_ANOMALY": 54.3965, "EPHEMERIS_TYPE": 0, "CLASSIFICATION_TYPE": "U", "NORAD_CAT_ID": 31614, "ELEMENT_SET_NO": 999, "REV_AT_EPOCH": 96459, "BSTAR": 0.0057369619, "MEAN_MOTION_DOT": 0.00068294, "MEAN_MOTION_DDOT": 0}, "tle": {"line1": "1 31614U 99025BZU 25348.71352568  .00068294  00000+0  57370-2 0  9991", "line2": "2 31614  98.9758 254.7917 0020638   0.6597  54.3965 14.97833083964595"}}, "geometry": {"type": "Point", "coordinates": [74.28969891235755, -17.368484397139323]}}]}